[{"OBJECT_NAME":"STARLINK-36483","OBJECT_ID":"2026-002AB","EPOCH":"2026-03-09T02:05:19.096512","MEAN_MOTION":15.27577963,"ECCENTRICITY":0.00015101,"INCLINATION":43.0008,"RA_OF_ASC_NODE":328.9343,"ARG_OF_PERICENTER":287.9973,"MEAN_ANOMALY":72.0714,"EPHEMERIS_TYPE":0,"CLASSIFICATION_TYPE":"U","NORAD_CAT_ID":67330,"ELEMENT_SET_NO":999,"REV_AT_EPOCH":1114,"BSTAR":0.0012629296,"MEAN_MOTION_DOT":0.00034652,"MEAN_MOTION_DDOT":0},{"OBJECT_NAME":"CZ-4C R\/B","OBJECT_ID":"2022-039B","EPOCH":"2026-03-09T15:51:32.485824","MEAN_MOTION":15.03008334,"ECCENTRICITY":0.0113659,"INCLINATION":98.2525,"RA_OF_ASC_NODE":105.9247,"ARG_OF_PERICENTER":45.8852,"MEAN_ANOMALY":315.1654,"EPHEMERIS_TYPE":0,"CLASSIFICATION_TYPE":"U","NORAD_CAT_ID":52258,"ELEMENT_SET_NO":999,"REV_AT_EPOCH":21291,"BSTAR":0.00022979194,"MEAN_MOTION_DOT":3.483e-5,"MEAN_MOTION_DDOT":0}]
